GLOBALSTAR M001 [-]     
1 25162U 98008A   24031.92137535 -.00000055  00000+0  31996-3 0  9997
2 25162  52.0066 355.0659 0001455 283.4190 110.6191 12.38175543181493
GLOBALSTAR M004 [-]     
1 25163U 98008B   24031.71549067 -.00000081  00000+0  12545-3 0  9990
2 25163  51.9992 147.0192 0002331 241.8563 265.8596 12.63349212198176
GLOBALSTAR M002 [-]     
1 25164U 98008C   24031.50189946 -.00000094  00000+0 -34570-3 0  9991
2 25164  52.0023  60.5915 0001077 295.1598  64.9111 11.61496926125658
GLOBALSTAR M003 [-]     
1 25165U 98008D   24031.66371955  .00000083  00000+0  18447-2 0  9992
2 25165  51.9810 120.3659 0007652   5.8594 142.0130 12.11974011172280
GLOBALSTAR M014 [-]     
1 25306U 98023A   24031.21040815 -.00000049  00000+0  54121-3 0  9998
2 25306  51.9877 355.1208 0000757 132.4988 330.0280 11.65464240132525
GLOBALSTAR M006 [-]     
1 25307U 98023B   24032.45890799 -.00000096  00000+0 -41278-3 0  9992
2 25307  51.9966  25.6848 0003648 288.4756 240.5530 11.58156320158802
GLOBALSTAR M015 [-]     
1 25308U 98023C   24031.70598885 -.00000112  00000+0 -88501-3 0  9990
2 25308  51.9821 103.0045 0012097 258.1421 279.0856 11.48857857136327
GLOBALSTAR M008 [-]     
1 25309U 98023D   24031.92745242 -.00000071  00000+0  19730-3 0  9997
2 25309  51.9939 214.1908 0002452 171.4324 354.4281 12.36036074175739
